sat05146
1 05146U 70025JQ  20046.81323634  .00000017  00000-0  82396-4 0  9992
2 05146  99.9328 171.1555 0043630  53.3947  99.9586 13.62004218474312
